*******************************************************************************
JPL/HORIZONS                     (2011 CL50)               2020-Dec-16 20:10:28
Rec #:50164112 (+COV) Soln.date: 2017-Apr-06_08:54:26        # obs: 28 (8 days)
 
IAU76/J2000 helio. ecliptic osc. elements (au, days, deg., period=Julian yrs):
 
  EPOCH=  2455606.5 ! 2011-Feb-14.00 (TDB)         Residual RMS= .41349
   EC= .1476368925080507   QR= .7526539887573834   TP= 2455739.67045552
   OM= 22.79350956116322   W=  285.5415384782677   IN= .1731846925117315
   A= .8830203725875035    MA= 201.8184328454073   ADIST= 1.013386756417624
   PER= .82978             N= 1.187812733          ANGMOM= .01598753
   DAN= .83091             DDN= .89935             L= 308.3351256
   B= -.1668524            MOID= .00208994         TP= 2011-Jun-27.1704555200
 
Asteroid physical parameters (km, seconds, rotational period in hours):
   GM= n.a.                RAD= n.a.               ROTPER= n.a.
   H= 27.6                 G= .150                 B-V= n.a.
                           ALBEDO= n.a.            STYP= n.a.
 
ASTEROID comments: 
1: soln ref.= JPL#8, OCC=7
2: source=ORB
*******************************************************************************
 
 
*******************************************************************************
Ephemeris / WWW_USER Wed Dec 16 20:10:28 2020 Pasadena, USA      / Horizons    
*******************************************************************************
Target body name: (2011 CL50)                     {source: JPL#8}
Center body name: Solar System Barycenter (0)     {source: DE431}
Center-site name: BODYCENTRIC
*******************************************************************************
Start time      : A.D. 2014-Jan-01 00:00:00.0000 UT      
Stop  time      : A.D. 2023-Jan-01 00:00:00.0000 UT      
Step-size       : 1440 minutes
*******************************************************************************
Target pole/equ : No model available
Target radii    : (unavailable)                                                
Center geodetic : 0.00000000,0.00000000,0.0000000 {E-lon(deg),Lat(deg),Alt(km)}
Center cylindric: 0.00000000,0.00000000,0.0000000 {E-lon(deg),Dxy(km),Dz(km)}
Center pole/equ : ICRF
Center radii    : (undefined)                                                  
Target primary  : Sun
Vis. interferer : None
Rel. light bend : Sun                             {source: DE431}
Rel. lght bnd GM: 1.3271E+11 km^3/s^2                                          
Small-body perts: Yes                             {source: SB431-N16}
Atmos refraction: NO (AIRLESS)
RA format       : DEG
Time format     : CAL 
EOP file        : eop.201216.p210309                                           
EOP coverage    : DATA-BASED 1962-JAN-20 TO 2020-DEC-16. PREDICTS-> 2021-MAR-08
Units conversion: 1 au= 149597870.700 km, c= 299792.458 km/s, 1 day= 86400.0 s 
Table cut-offs 1: Elevation (-90.0deg=NO ),Airmass     n.a.    , Daylight (NO )
Table cut-offs 2: Solar elongation (  0.0,180.0=NO ),Local Hour Angle( 0.0=NO )
Table cut-offs 3: RA/DEC angular rate (     0.0=NO )                           
*******************************************************************************
Initial IAU76/J2000 heliocentric ecliptic osculating elements (au, days, deg.):
  EPOCH=  2455606.5 ! 2011-Feb-14.00 (TDB)         Residual RMS= .41349        
   EC= .1476368925080507   QR= .7526539887573834   TP= 2455739.67045552        
   OM= 22.79350956116322   W=  285.5415384782677   IN= .1731846925117315       
  Equivalent ICRF heliocentric equatorial cartesian coordinates (au, au/d):
   X=-8.222141934578051E-01  Y= 5.311773986873656E-01  Z= 2.331048076537325E-01
  VX=-8.526503647130160E-03 VY=-1.230992834925974E-02 VZ=-5.366911369797433E-03
Asteroid physical parameters (km, seconds, rotational period in hours):        
   GM= n.a.                RAD= n.a.               ROTPER= n.a.                
   H= 27.6                 G= .150                 B-V= n.a.                   
                           ALBEDO= n.a.            STYP= n.a.                  
*******************************************************************************
 Date__(UT)__HR:MN                delta     GlxLon     GlxLat
*************************************************************
$$SOE
 2019-Aug-10 00:00     1.3733217661E+08 301.629503  57.642039
 2019-Aug-11 00:00     1.3693867805E+08 303.500731  57.220728
 2019-Aug-12 00:00     1.3654228409E+08 305.338489  56.769649
 2019-Aug-13 00:00     1.3614312290E+08 307.141376  56.289425
 2019-Aug-14 00:00     1.3574132593E+08 308.908279  55.780704
 2019-Aug-15 00:00     1.3533702803E+08 310.638355  55.244157
 2019-Aug-16 00:00     1.3493036744E+08 312.331024  54.680469
 2019-Aug-17 00:00     1.3452148590E+08 313.985940  54.090330
 2019-Aug-18 00:00     1.3411052862E+08 315.602979  53.474435
 2019-Aug-19 00:00     1.3369764441E+08 317.182214  52.833474
 2019-Aug-20 00:00     1.3328298563E+08 318.723897  52.168129
 2019-Aug-21 00:00     1.3286670829E+08 320.228435  51.479073
 2019-Aug-22 00:00     1.3244897207E+08 321.696370  50.766965
 2019-Aug-23 00:00     1.3202994035E+08 323.128363  50.032446
 2019-Aug-24 00:00     1.3160978022E+08 324.525174  49.276140
 2019-Aug-25 00:00     1.3118866253E+08 325.887644  48.498651
 2019-Aug-26 00:00     1.3076676190E+08 327.216684  47.700563
 2019-Aug-27 00:00     1.3034425672E+08 328.513255  46.882437
 2019-Aug-28 00:00     1.2992132920E+08 329.778363  46.044814
 2019-Aug-29 00:00     1.2949816531E+08 331.013042  45.188212
 2019-Aug-30 00:00     1.2907495485E+08 332.218348  44.313128
 2019-Aug-31 00:00     1.2865189138E+08 333.395348  43.420039
 2019-Sep-01 00:00     1.2822917224E+08 334.545117  42.509400
 2019-Sep-02 00:00     1.2780699851E+08 335.668728  41.581648
 2019-Sep-03 00:00     1.2738557501E+08 336.767248  40.637201
 2019-Sep-04 00:00     1.2696511021E+08 337.841736  39.676457
 2019-Sep-05 00:00     1.2654581623E+08 338.893236  38.699799
 2019-Sep-06 00:00     1.2612790874E+08 339.922777  37.707595
 2019-Sep-07 00:00     1.2571160696E+08 340.931369  36.700198
 2019-Sep-08 00:00     1.2529713349E+08 341.920005  35.677945
 2019-Sep-09 00:00     1.2488471430E+08 342.889653  34.641165
 2019-Sep-10 00:00     1.2447457860E+08 343.841265  33.590171
 2019-Sep-11 00:00     1.2406695873E+08 344.775766  32.525271
 2019-Sep-12 00:00     1.2366209005E+08 345.694062  31.446759
 2019-Sep-13 00:00     1.2326021077E+08 346.597037  30.354925
 2019-Sep-14 00:00     1.2286156185E+08 347.485554  29.250050
 2019-Sep-15 00:00     1.2246638680E+08 348.360454  28.132411
 2019-Sep-16 00:00     1.2207493151E+08 349.222559  27.002279
 2019-Sep-17 00:00     1.2168744408E+08 350.072673  25.859923
 2019-Sep-18 00:00     1.2130417460E+08 350.911579  24.705608
 2019-Sep-19 00:00     1.2092537493E+08 351.740045  23.539598
 2019-Sep-20 00:00     1.2055129845E+08 352.558823  22.362156
 2019-Sep-21 00:00     1.2018219985E+08 353.368650  21.173548
 2019-Sep-22 00:00     1.1981833484E+08 354.170250  19.974037
 2019-Sep-23 00:00     1.1945995986E+08 354.964333  18.763892
 2019-Sep-24 00:00     1.1910733179E+08 355.751601  17.543383
 2019-Sep-25 00:00     1.1876070766E+08 356.532744  16.312785
 2019-Sep-26 00:00     1.1842034431E+08 357.308447  15.072376
 2019-Sep-27 00:00     1.1808649804E+08 358.079384  13.822443
 2019-Sep-28 00:00     1.1775942426E+08 358.846228  12.563275
 2019-Sep-29 00:00     1.1743937714E+08 359.609648  11.295173
 2019-Sep-30 00:00     1.1712660921E+08   0.370308  10.018441
 2019-Oct-01 00:00     1.1682137097E+08   1.128875   8.733396
 2019-Oct-02 00:00     1.1652391051E+08   1.886016   7.440361
 2019-Oct-03 00:00     1.1623447304E+08   2.642401   6.139672
 2019-Oct-04 00:00     1.1595330054E+08   3.398704   4.831673
 2019-Oct-05 00:00     1.1568063125E+08   4.155607   3.516720
 2019-Oct-06 00:00     1.1541669929E+08   4.913798   2.195184
 2019-Oct-07 00:00     1.1516173419E+08   5.673979   0.867444
 2019-Oct-08 00:00     1.1491596046E+08   6.436860  -0.466103
 2019-Oct-09 00:00     1.1467959710E+08   7.203168  -1.805050
 2019-Oct-10 00:00     1.1445285718E+08   7.973646  -3.148973
 2019-Oct-11 00:00     1.1423594739E+08   8.749056  -4.497432
 2019-Oct-12 00:00     1.1402906759E+08   9.530181  -5.849973
 2019-Oct-13 00:00     1.1383241035E+08  10.317827  -7.206124
 2019-Oct-14 00:00     1.1364616053E+08  11.112827  -8.565397
 2019-Oct-15 00:00     1.1347049484E+08  11.916044  -9.927284
 2019-Oct-16 00:00     1.1330558144E+08  12.728372 -11.291259
 2019-Oct-17 00:00     1.1315157954E+08  13.550740 -12.656778
 2019-Oct-18 00:00     1.1300863900E+08  14.384115 -14.023273
 2019-Oct-19 00:00     1.1287689993E+08  15.229508 -15.390159
 2019-Oct-20 00:00     1.1275649241E+08  16.087973 -16.756824
 2019-Oct-21 00:00     1.1264753608E+08  16.960616 -18.122637
 2019-Oct-22 00:00     1.1255013990E+08  17.848592 -19.486939
 2019-Oct-23 00:00     1.1246440182E+08  18.753117 -20.849047
 2019-Oct-24 00:00     1.1239040853E+08  19.675469 -22.208251
 2019-Oct-25 00:00     1.1232823524E+08  20.616989 -23.563811
 2019-Oct-26 00:00     1.1227794549E+08  21.579093 -24.914959
 2019-Oct-27 00:00     1.1223959093E+08  22.563271 -26.260892
 2019-Oct-28 00:00     1.1221321126E+08  23.571093 -27.600775
 2019-Oct-29 00:00     1.1219883402E+08  24.604218 -28.933736
 2019-Oct-30 00:00     1.1219647462E+08  25.664392 -30.258863
 2019-Oct-31 00:00     1.1220613622E+08  26.753459 -31.575205
 2019-Nov-01 00:00     1.1222780976E+08  27.873362 -32.881765
 2019-Nov-02 00:00     1.1226147395E+08  29.026151 -34.177499
 2019-Nov-03 00:00     1.1230709539E+08  30.213980 -35.461312
 2019-Nov-04 00:00     1.1236462858E+08  31.439116 -36.732053
 2019-Nov-05 00:00     1.1243401612E+08  32.703937 -37.988516
 2019-Nov-06 00:00     1.1251518881E+08  34.010932 -39.229429
